[{"OBJECT_NAME":"STARLINK-34086","OBJECT_ID":"2025-216A","EPOCH":"2026-03-09T22:41:19.344192","MEAN_MOTION":15.30189879,"ECCENTRICITY":0.00017658,"INCLINATION":53.1596,"RA_OF_ASC_NODE":331.6461,"ARG_OF_PERICENTER":139.2059,"MEAN_ANOMALY":220.9074,"EPHEMERIS_TYPE":0,"CLASSIFICATION_TYPE":"U","NORAD_CAT_ID":65734,"ELEMENT_SET_NO":999,"REV_AT_EPOCH":2660,"BSTAR":0.0009351833,"MEAN_MOTION_DOT":0.00027432,"MEAN_MOTION_DDOT":0},{"OBJECT_NAME":"SL-3 R\/B","OBJECT_ID":"1982-027B","EPOCH":"2026-03-09T22:44:40.208640","MEAN_MOTION":15.28335844,"ECCENTRICITY":0.00065199,"INCLINATION":81.188,"RA_OF_ASC_NODE":37.4466,"ARG_OF_PERICENTER":276.581,"MEAN_ANOMALY":83.4683,"EPHEMERIS_TYPE":0,"CLASSIFICATION_TYPE":"U","NORAD_CAT_ID":13121,"ELEMENT_SET_NO":999,"REV_AT_EPOCH":39859,"BSTAR":0.00030526741,"MEAN_MOTION_DOT":8.453e-5,"MEAN_MOTION_DDOT":0}]
